     2              NAVIGATION DATA                         RINEX VERSION / TYPE
CCRINEXN V1.6.0 UX  CDDIS               04-JUN-16 15:33     PGM / RUN BY / DATE 
IGS BROADCAST EPHEMERIS FILE                                COMMENT             
    0.6519D-08  0.2235D-07 -0.5960D-07 -0.1192D-06          ION ALPHA           
    0.8602D+05  0.9830D+05 -0.6554D+05 -0.5243D+06          ION BETA            
    0.186264514923D-08 0.621724893790D-14    61440     1900 DELTA-UTC: A0,A1,T,W
    17                                                      LEAP SECONDS        
                                                            END OF HEADER       
16 16  6  3 14  0  0.0-0.132606364787D-04 0.250111042988D-11 0.000000000000D+00
    0.940000000000D+02-0.118937500000D+03 0.415088718683D-08 0.684725097549D-02
   -0.622496008873D-05 0.875042541884D-02 0.374391674995D-05 0.515376627922D+04
    0.482400000000D+06 0.949949026108D-07 0.196785038103D+01 0.931322574615D-07
    0.990603850421D+00 0.319375000000D+03 0.388039763688D+00-0.828213069827D-08
   -0.566452166435D-09 0.100000000000D+01 0.189900000000D+04 0.000000000000D+00
    0.280000000000D+01 0.000000000000D+00-0.107102096081D-07 0.940000000000D+02
    0.475218000000D+06 0.400000000000D+01 0.000000000000D+00 0.000000000000D+00
17 16  6  3 14  0  0.0-0.203975476325D-03-0.113686837722D-12 0.000000000000D+00
    0.122000000000D+03-0.599375000000D+02 0.382587364871D-08-0.858019194298D+00
   -0.315532088280D-05 0.109546231106D-01 0.121090561151D-04 0.515370768547D+04
    0.482400000000D+06-0.242143869400D-07 0.298923570434D+01 0.191852450371D-06
    0.976863866347D+00 0.158312500000D+03-0.192792137501D+01-0.780353933445D-08
    0.989326923723D-10 0.100000000000D+01 0.189900000000D+04 0.000000000000D+00
    0.200000000000D+01 0.000000000000D+00-0.107102096081D-07 0.122000000000D+03
    0.475218000000D+06 0.400000000000D+01 0.000000000000D+00 0.000000000000D+00
18 16  6  3 14  0  0.0 0.522569753230D-03 0.409272615798D-11 0.000000000000D+00
    0.290000000000D+02-0.375937500000D+02 0.578845539812D-08 0.697949913558D+00
   -0.204518437386D-05 0.172197154025D-01 0.666454434395D-05 0.515367918968D+04
    0.482400000000D+06-0.234693288803D-06-0.127807301689D+01 0.130385160446D-07
    0.924568455393D+00 0.233843750000D+03-0.188190738904D+01-0.892108588475D-08
   -0.559309011751D-09 0.000000000000D+00 0.189900000000D+04 0.000000000000D+00
    0.200000000000D+01 0.000000000000D+00-0.121071934700D-07 0.290000000000D+02
    0.477720000000D+06 0.400000000000D+01 0.000000000000D+00 0.000000000000D+00
19 16  6  3 14  0  0.0-0.525603536516D-03 0.113686837722D-12 0.000000000000D+00
    0.730000000000D+02-0.674375000000D+02 0.374372755019D-08 0.226748881984D+01
   -0.382214784622D-05 0.108052352443D-01 0.126417726278D-04 0.515363016701D+04
    0.482400000000D+06-0.707805156708D-07 0.303796546167D+01-0.208616256714D-06
    0.973981303305D+00 0.146468750000D+03 0.779882609675D+00-0.753209938864D-08
    0.120004992055D-09 0.100000000000D+01 0.189900000000D+04 0.000000000000D+00
    0.200000000000D+01 0.000000000000D+00-0.149011611938D-07 0.730000000000D+02
    0.475650000000D+06 0.000000000000D+00 0.000000000000D+00 0.000000000000D+00
20 16  6  3 14  0  0.0 0.416200608015D-03 0.227373675443D-11 0.000000000000D+00
    0.920000000000D+02-0.393125000000D+02 0.560487632274D-08-0.166128532062D+01
   -0.178068876266D-05 0.456632918213D-02 0.583939254284D-05 0.515373728943D+04
    0.482400000000D+06 0.409781932831D-07-0.132990468282D+01 0.987201929092D-07
    0.925820035938D+00 0.242343750000D+03 0.137708184373D+01-0.856964267430D-08
   -0.339299847486D-09 0.000000000000D+00 0.189900000000D+04 0.000000000000D+00
    0.200000000000D+01 0.000000000000D+00-0.838190317154D-08 0.920000000000D+02
    0.475200000000D+06 0.400000000000D+01 0.000000000000D+00 0.000000000000D+00
21 16  6  3 14  0  0.0-0.524729955941D-03-0.113686837722D-11 0.000000000000D+00
    0.155000000000D+03 0.323437500000D+02 0.536772358723D-08 0.158765664930D+01
    0.122003257275D-05 0.233570339624D-01 0.701844692230D-05 0.515359666824D+04
    0.482400000000D+06-0.167638063431D-06-0.232038858127D+01-0.568106770515D-06
    0.936379204547D+00 0.233031250000D+03-0.178569781792D+01-0.849713965426D-08
    0.584667210879D-09 0.000000000000D+00 0.189900000000D+04 0.000000000000D+00
    0.200000000000D+01 0.000000000000D+00-0.102445483208D-07 0.155000000000D+03
    0.475200000000D+06 0.400000000000D+01 0.000000000000D+00 0.000000000000D+00
22 16  6  3 14  0  0.0 0.328271649778D-03-0.841282599140D-11 0.000000000000D+00
    0.670000000000D+02-0.394375000000D+02 0.576559730313D-08-0.129251330863D+01
   -0.177137553692D-05 0.768752547447D-02 0.589527189732D-05 0.515379993820D+04
    0.482400000000D+06 0.108033418655D-06-0.127743891505D+01 0.150874257088D-06
    0.922470813732D+00 0.242656250000D+03-0.191327266134D+01-0.871179145251D-08
   -0.363943731146D-09 0.100000000000D+01 0.189900000000D+04 0.000000000000D+00
    0.200000000000D+01 0.000000000000D+00-0.176951289177D-07 0.670000000000D+02
    0.475218000000D+06 0.400000000000D+01 0.000000000000D+00 0.000000000000D+00
23 16  6  3 14  0  0.0-0.176566187292D-03-0.159161572810D-11 0.000000000000D+00
    0.790000000000D+02 0.660000000000D+02 0.454054627484D-08-0.216726053668D+01
    0.302121043205D-05 0.109838901553D-01 0.134035944939D-04 0.515367876434D+04
    0.482400000000D+06 0.113621354103D-06-0.200329444594D+00-0.128522515297D-06
    0.946339502770D+00 0.111937500000D+03-0.257185152584D+01-0.785854162552D-08
   -0.128576784311D-10 0.100000000000D+01 0.189900000000D+04 0.000000000000D+00
    0.200000000000D+01 0.000000000000D+00-0.200234353542D-07 0.790000000000D+02
    0.475218000000D+06 0.400000000000D+01 0.000000000000D+00 0.000000000000D+00
24 16  6  3 14  0  0.0-0.180224888027D-04-0.568434188608D-12 0.000000000000D+00
    0.135000000000D+03 0.117406250000D+03 0.509878381338D-08-0.274036610830D+01
    0.600703060627D-05 0.440277648158D-02 0.283308327198D-05 0.515361725807D+04
    0.482400000000D+06-0.372529029846D-08 0.824944873808D+00-0.968575477600D-07
    0.949513831657D+00 0.319718750000D+03 0.418378949631D+00-0.852642658846D-08
    0.329656588663D-09 0.000000000000D+00 0.189900000000D+04 0.000000000000D+00
    0.200000000000D+01 0.000000000000D+00 0.232830643654D-08 0.135000000000D+03
    0.475200000000D+06 0.400000000000D+01 0.000000000000D+00 0.000000000000D+00
25 16  6  3 14  0  0.0-0.183411408216D-03-0.704858393874D-11 0.000000000000D+00
    0.116000000000D+03-0.107968750000D+03 0.444482800207D-08 0.150328874757D+01
   -0.561773777008D-05 0.562602514401D-02 0.373832881451D-05 0.515374555588D+04
    0.482400000000D+06-0.158324837685D-06 0.189803540987D+01 0.141561031342D-06
    0.978287032553D+00 0.318406250000D+03 0.777790031174D+00-0.833463288520D-08
   -0.485020203038D-09 0.000000000000D+00 0.189900000000D+04 0.000000000000D+00
    0.200000000000D+01 0.000000000000D+00 0.558793544769D-08 0.116000000000D+03
    0.480150000000D+06 0.400000000000D+01 0.000000000000D+00 0.000000000000D+00
26 16  6  3 14  0  0.0-0.384619925171D-03-0.117097442853D-10 0.000000000000D+00
    0.500000000000D+02-0.117875000000D+03 0.489913263997D-08 0.700338065880D+00
   -0.597909092903D-05 0.102400674950D-02 0.249966979027D-05 0.515376534843D+04
    0.482400000000D+06 0.316649675369D-07 0.188893408009D+01-0.372529029846D-08
    0.960256625743D+00 0.325906250000D+03 0.186031629375D+00-0.858785771874D-08
   -0.529664919813D-09 0.100000000000D+01 0.189900000000D+04 0.000000000000D+00
    0.200000000000D+01 0.000000000000D+00 0.698491930962D-08 0.500000000000D+02
    0.475218000000D+06 0.400000000000D+01 0.000000000000D+00 0.000000000000D+00
27 16  6  3 14  0  0.0 0.994866713881D-04 0.409272615798D-11 0.000000000000D+00
    0.108000000000D+03-0.903750000000D+02 0.379730102997D-08-0.856525347204D+00
   -0.471994280815D-05 0.371330860071D-02 0.130962580442D-04 0.515365025520D+04
    0.482400000000D+06 0.152736902237D-06 0.293932043038D+01 0.186264514923D-08
    0.971796098683D+00 0.134781250000D+03 0.291691205104D+00-0.765174729742D-08
    0.407159816984D-10 0.100000000000D+01 0.189900000000D+04 0.000000000000D+00
    0.280000000000D+01 0.000000000000D+00 0.139698386192D-08 0.108000000000D+03
    0.475218000000D+06 0.400000000000D+01 0.000000000000D+00 0.000000000000D+00
28 16  6  3 14  0  0.0 0.527554191649D-03 0.261479726760D-11 0.000000000000D+00
    0.810000000000D+02-0.106375000000D+03 0.418624580251D-08-0.631655081712D-01
   -0.547617673874D-05 0.197466654936D-01 0.417046248913D-05 0.515362859535D+04
    0.482400000000D+06-0.255182385445D-06 0.197279432877D+01 0.558793544769D-08
    0.989313049042D+00 0.316750000000D+03-0.161647627590D+01-0.849499670785D-08
   -0.445018536808D-09 0.000000000000D+00 0.189900000000D+04 0.000000000000D+00
    0.200000000000D+01 0.000000000000D+00-0.111758708954D-07 0.810000000000D+02
    0.475200000000D+06 0.400000000000D+01 0.000000000000D+00 0.000000000000D+00
29 16  6  3 14  0  0.0 0.656943302602D-03-0.227373675443D-12 0.000000000000D+00
    0.210000000000D+02-0.563125000000D+02 0.368158192409D-08 0.143450873535D+01
   -0.295601785183D-05 0.952758709900D-03 0.134520232678D-04 0.515357140732D+04
    0.482400000000D+06-0.689178705216D-07 0.299895750888D+01 0.108033418655D-06
    0.977842027503D+00 0.127781250000D+03-0.200789254375D+00-0.752567061725D-08
    0.187507810453D-09 0.000000000000D+00 0.189900000000D+04 0.000000000000D+00
    0.200000000000D+01 0.000000000000D+00-0.102445483208D-07 0.210000000000D+02
    0.475200000000D+06 0.400000000000D+01 0.000000000000D+00 0.000000000000D+00
